NORAD_CAT_ID,OBJECT_NAME,OBJECT_TYPE,EPOCH,MEAN_MOTION,ECCENTRICITY,INCLINATION,RA_OF_ASC_NODE,ARG_OF_PERICENTER,MEAN_ANOMALY,BSTAR,MEAN_MOTION_DOT,MEAN_MOTION_DDOT,TLE_LINE0,TLE_LINE1,TLE_LINE2,SEMIMAJOR_AXIS,PERIOD,APOGEE,PERIGEE,DECAYED
52615.0,STARLINK-4011,PAYLOAD,2024-06-01 13:40:41,15.08836849,8.62e-05,53.2175,304.6601,118.8211,241.2868,3.6086e-05,2.87e-06,0.0,0 STARLINK-4011,1 52615U 22052T   24153.56992820  .00000287  00000-0  36086-4 0  9990,2 52615  53.2175 304.6601 0000862 118.8211 241.2868 15.08836849113235,6917.89,95.438,540.351,539.159,0.0
52615.0,STARLINK-4011,PAYLOAD,2024-06-01 16:51:27,15.08842394,8.3e-05,53.2183,304.0668,108.5784,251.5299,-3.0008e-05,-7.65e-06,0.0,0 STARLINK-4011,1 52615U 22052T   24153.70240612 -.00000765  00000-0 -30008-4 0  9992,2 52615  53.2183 304.0668 0000830 108.5784 251.5299 15.08842394113635,6917.873,95.437,540.312,539.164,0.0
52615.0,STARLINK-4011,PAYLOAD,2024-06-02 10:20:42,15.08834669,8.73e-05,53.2182,300.7953,120.2859,239.8219,3.0539e-05,1.98e-06,0.0,0 STARLINK-4011,1 52615U 22052T   24154.43105038  .00000198  00000-0  30539-4 0  9992,2 52615  53.2182 300.7953 0000873 120.2859 239.8219 15.08834669113744,6917.897,95.438,540.366,539.158,0.0
52615.0,STARLINK-4011,PAYLOAD,2024-06-03 02:14:34,15.08820579,9.81e-05,53.2184,297.8264,99.6867,260.4236,0.000414,6.304e-05,0.0,0 STARLINK-4011,1 52615U 22052T   24155.09345489  .00006304  00000-0  41400-3 0  9994,2 52615  53.2184 297.8264 0000981  99.6867 260.4236 15.08820579113468,6917.94,95.439,540.483,539.126,0.0
52615.0,STARLINK-4011,PAYLOAD,2024-06-03 18:08:25,15.08837863,0.0001036,53.2185,294.8543,76.1779,283.9328,0.00011704,1.575e-05,0.0,0 STARLINK-4011,1 52615U 22052T   24155.75585238  .00001575  00000-0  11704-3 0  9994,2 52615  53.2185 294.8543 0001036  76.1779 283.9328 15.08837863113949,6917.887,95.438,540.469,539.035,0.0
52615.0,STARLINK-4011,PAYLOAD,2024-06-04 02:05:21,15.08835251,0.000106,53.2182,293.3665,68.6435,291.467,8.1511e-05,1.01e-05,0.0,0 STARLINK-4011,1 52615U 22052T   24156.08705585  .00001010  00000-0  81511-4 0  9998,2 52615  53.2182 293.3665 0001060  68.6435 291.4670 15.08835251113614,6917.895,95.438,540.493,539.027,0.0
52615.0,STARLINK-4011,PAYLOAD,2024-06-04 17:59:12,15.08848038,0.0001082,53.2143,290.3906,56.7443,303.3653,9.78e-05,1.269e-05,0.0,0 STARLINK-4011,1 52615U 22052T   24156.74944694  .00001269  00000-0  97800-4 0  9991,2 52615  53.2143 290.3906 0001082  56.7443 303.3653 15.08848038113719,6917.856,95.437,540.469,538.972,0.0
52615.0,STARLINK-4011,PAYLOAD,2024-06-05 01:56:08,15.08837401,0.0001158,53.2152,288.9035,69.0475,291.0641,6.8432e-05,8.01e-06,0.0,0 STARLINK-4011,1 52615U 22052T   24157.08065409  .00000801  00000-0  68432-4 0  9997,2 52615  53.2152 288.9035 0001158  69.0475 291.0641 15.08837401114141,6917.888,95.438,540.554,538.952,0.0
52615.0,STARLINK-4011,PAYLOAD,2024-06-05 08:17:41,15.08836792,0.0001329,53.2154,287.7144,70.044,290.0695,5.7585e-05,6.29e-06,0.0,0 STARLINK-4011,1 52615U 22052T   24157.34561584  .00000629  00000-0  57585-4 0  9996,2 52615  53.2154 287.7144 0001329  70.0440 290.0695 15.08836792113807,6917.89,95.438,540.675,538.836,0.0
52615.0,STARLINK-4011,PAYLOAD,2024-06-06 14:30:00,15.08841692,7.74e-05,53.2139,282.0644,81.0863,279.0217,5.1605e-05,5.34e-06,0.0,0 STARLINK-4011,1 52615U 22052T   24158.60417322  .00000534  00000-0  51605-4 0  9998,2 52615  53.2139 282.0644 0000774  81.0863 279.0217 15.08841692113999,6917.875,95.437,540.276,539.205,0.0
52615.0,STARLINK-4011,PAYLOAD,2024-06-06 17:40:46,15.08840552,9.46e-05,53.2146,281.4695,94.182,265.928,0.00012545,1.709e-05,0.0,0 STARLINK-4011,1 52615U 22052T   24158.73665201  .00001709  00000-0  12545-3 0  9997,2 52615  53.2146 281.4695 0000946  94.1820 265.9280 15.08840552114398,6917.879,95.438,540.398,539.089,0.0
52615.0,STARLINK-4011,PAYLOAD,2024-06-07 14:20:48,15.08828302,9.93e-05,53.2143,277.6034,97.0962,263.0143,0.00032569,4.898e-05,0.0,0 STARLINK-4011,1 52615U 22052T   24159.59777931  .00004898  00000-0  32569-3 0  9996,2 52615  53.2143 277.6034 0000993  97.0962 263.0143 15.08828302114149,6917.916,95.438,540.468,539.094,0.0
52615.0,STARLINK-4011,PAYLOAD,2024-06-07 17:31:33,15.08844677,0.0001096,53.2111,277.0077,100.0027,260.1088,0.00015664,2.206e-05,0.0,0 STARLINK-4011,1 52615U 22052T   24159.73025011  .00002206  00000-0  15664-3 0  9995,2 52615  53.2111 277.0077 0001096 100.0027 260.1088 15.08844677114168,6917.866,95.437,540.489,538.973,0.0
52615.0,STARLINK-4011,PAYLOAD,2024-06-08 01:28:28,15.08864262,0.0001297,53.2134,275.5243,84.6371,275.4769,-0.00010078,-1.893e-05,0.0,0 STARLINK-4011,1 52615U 22052T   24160.06144588 -.00001893  00000-0 -10078-3 0  9991,2 52615  53.2134 275.5243 0001297  84.6371 275.4769 15.08864262114597,6917.806,95.436,540.568,538.774,0.0
52615.0,STARLINK-4011,PAYLOAD,2024-06-08 11:00:47,15.08848439,0.0001087,53.2149,273.7381,98.4631,261.6485,0.00015091,2.115e-05,0.0,0 STARLINK-4011,1 52615U 22052T   24160.45888857  .00002115  00000-0  15091-3 0  9994,2 52615  53.2149 273.7381 0001087  98.4631 261.6485 15.08848439114652,6917.855,95.437,540.472,538.968,0.0
52615.0,STARLINK-4011,PAYLOAD,2024-06-08 14:11:33,15.08857595,0.0001031,53.2132,273.1449,94.635,265.476,0.00027993,4.172e-05,0.0,0 STARLINK-4011,1 52615U 22052T   24160.59136389  .00004172  00000-0  27993-3 0  9994,2 52615  53.2132 273.1449 0001031  94.6350 265.4760 15.08857595114299,6917.827,95.436,540.405,538.978,0.0
52615.0,STARLINK-4011,PAYLOAD,2024-06-08 17:22:20,15.08857593,0.0001181,53.2152,272.5505,96.7483,263.3643,0.00032005,4.812e-05,0.0,0 STARLINK-4011,1 52615U 22052T   24160.72384298  .00004812  00000-0  32005-3 0  9994,2 52615  53.2152 272.5505 0001181  96.7483 263.3643 15.08857593114311,6917.827,95.436,540.509,538.875,0.0
52615.0,STARLINK-4011,PAYLOAD,2024-06-09 12:26:59,15.08827271,0.0001193,53.2174,268.9809,102.2391,257.8735,-0.00014465,-2.588e-05,0.0,0 STARLINK-4011,1 52615U 22052T   24161.51874185 -.00002588  00000-0 -14465-3 0  9991,2 52615  53.2174 268.9809 0001193 102.2391 257.8735 15.08827271114810,6917.919,95.438,540.61,538.959,0.0
52615.0,STARLINK-4011,PAYLOAD,2024-06-09 15:37:45,15.08825803,0.0001067,53.2159,268.3854,85.4568,274.6546,-0.00015235,-2.711e-05,0.0,0 STARLINK-4011,1 52615U 22052T   24161.65122395 -.00002711  00000-0 -15235-3 0  9999,2 52615  53.2159 268.3854 0001067  85.4568 274.6546 15.08825803114451,6917.924,95.438,540.527,539.051,0.0
52615.0,STARLINK-4011,PAYLOAD,2024-06-10 12:17:46,15.0884207,9.56e-05,53.2164,264.5207,66.991,293.1183,0.00015852,2.236e-05,0.0,0 STARLINK-4011,1 52615U 22052T   24162.51233915  .00002236  00000-0  15852-3 0  9991,2 52615  53.2164 264.5207 0000956  66.9910 293.1183 15.08842070114962,6917.874,95.437,540.4,539.078,0.0
52615.0,STARLINK-4011,PAYLOAD,2024-06-10 13:53:09,15.08842045,7.54e-05,53.2149,264.224,58.1141,301.9925,0.00016194,2.291e-05,0.0,0 STARLINK-4011,1 52615U 22052T   24162.57857789  .00002291  00000-0  16194-3 0  9999,2 52615  53.2149 264.2240 0000754  58.1141 301.9925 15.08842045114597,6917.874,95.437,540.261,539.218,0.0
52615.0,STARLINK-4011,PAYLOAD,2024-06-11 13:43:56,15.08843059,9.82e-05,53.2168,259.7674,77.096,283.0141,0.00030636,4.592e-05,0.0,0 STARLINK-4011,1 52615U 22052T   24163.57217999  .00004592  00000-0  30636-3 0  9996,2 52615  53.2168 259.7674 0000982  77.0960 283.0141 15.08843059114743,6917.871,95.437,540.415,539.057,0.0
52615.0,STARLINK-4011,PAYLOAD,2024-06-11 23:16:14,15.08843257,8.42e-05,53.2152,257.9833,57.6042,302.5031,6.4523e-05,7.39e-06,0.0,0 STARLINK-4011,1 52615U 22052T   24163.96961747  .00000739  00000-0  64523-4 0  9998,2 52615  53.2152 257.9833 0000842  57.6042 302.5031 15.08843257115187,6917.87,95.437,540.318,539.153,0.0
52615.0,STARLINK-4011,PAYLOAD,2024-06-12 11:59:21,15.08836703,0.0001062,53.2177,255.6053,109.8559,250.2547,-6.2084e-05,-1.276e-05,0.0,0 STARLINK-4011,1 52615U 22052T   24164.49954886 -.00001276  00000-0 -62084-4 0  9992,2 52615  53.2177 255.6053 0001062 109.8559 250.2547 15.08836703115269,6917.89,95.438,540.49,539.021,0.0
52615.0,STARLINK-4011,PAYLOAD,2024-06-12 13:34:44,15.08839604,9.6e-05,53.2175,255.304,72.4816,287.6281,-6.4291e-05,-1.311e-05,0.0,0 STARLINK-4011,1 52615U 22052T   24164.56578731 -.00001311  00000-0 -64291-4 0  9993,2 52615  53.2175 255.3040 0000960  72.4816 287.6281 15.08839604114897,6917.882,95.438,540.411,539.082,0.0
52615.0,STARLINK-4011,PAYLOAD,2024-06-13 11:50:07,15.08847042,8.73e-05,53.2173,251.1415,79.5606,280.5484,2.607e-05,1.27e-06,0.0,0 STARLINK-4011,1 52615U 22052T   24165.49314056  .00000127  00000-0  26070-4 0  9999,2 52615  53.2173 251.1415 0000873  79.5606 280.5484 15.08847042115414,6917.859,95.437,540.328,539.12,0.0
52615.0,STARLINK-4011,PAYLOAD,2024-06-13 13:25:30,15.08849779,8.74e-05,53.2172,250.8438,76.0654,284.0435,4.9353e-05,4.98e-06,0.0,0 STARLINK-4011,1 52615U 22052T   24165.55937829  .00000498  00000-0  49353-4 0  9995,2 52615  53.2172 250.8438 0000874  76.0654 284.0435 15.08849779115043,6917.85,95.437,540.32,539.111,0.0
52615.0,STARLINK-4011,PAYLOAD,2024-06-14 11:40:54,15.08834718,7.82e-05,53.2162,246.6792,91.038,269.0702,0.00013115,1.8e-05,0.0,0 STARLINK-4011,1 52615U 22052T   24166.48674640  .00001800  00000-0  13115-3 0  9991,2 52615  53.2162 246.6792 0000782  91.0380 269.0702 15.08834718115181,6917.897,95.438,540.303,539.221,0.0
52615.0,STARLINK-4011,PAYLOAD,2024-06-15 11:31:41,15.08851053,9.55e-05,53.2167,242.2187,103.0596,257.0502,5.6457e-05,6.11e-06,0.0,0 STARLINK-4011,1 52615U 22052T   24167.48033626  .00000611  00000-0  56457-4 0  9991,2 52615  53.2167 242.2187 0000955 103.0596 257.0502 15.08851053115334,6917.847,95.437,540.372,539.051,0.0
52615.0,STARLINK-4011,PAYLOAD,2024-06-16 11:22:29,15.08829998,5.43e-05,53.2148,237.76,90.5789,269.5265,0.00015905,2.244e-05,0.0,0 STARLINK-4011,1 52615U 22052T   24168.47394697  .00002244  00000-0  15905-3 0  9995,2 52615  53.2148 237.7600 0000543  90.5789 269.5265 15.08829998115482,6917.911,95.438,540.152,539.4,0.0
